STARLETTE               
1 07646U 75010A   22285.73216392 -.00000123  00000+0  14336-4 0  9995
2 07646  49.8268   7.3146 0205731 304.9997  53.1738 13.82313700408706
LAGEOS 1                
1 08820U 76039A   22285.69437448  .00000011  00000+0  00000+0 0  9997
2 08820 109.8520  79.1513 0045149 229.8664 165.5011  6.38664904827340
AJISAI (EGS)            
1 16908U 86061A   22285.91034771 -.00000085  00000+0  89346-4 0  9993
2 16908  50.0102 317.8763 0011297   1.4392  58.2938 12.44497485313121
COSMOS 1989 (ETALON 1)  
1 19751U 89001C   22285.43204236  .00000035  00000+0  00000+0 0  9990
2 19751  64.3324 118.3614 0023838 213.4671   6.7456  2.13156330262720
COSMOS 2024 (ETALON 2)  
1 20026U 89039C   22285.85292174 -.00000085  00000+0  00000+0 0  9998
2 20026  65.5238 356.4075 0018637 218.6580 253.9232  2.13204358259860
LAGEOS 2                
1 22195U 92070B   22285.18005753 -.00000009  00000+0  00000+0 0  9993
2 22195  52.6775  36.0223 0138355 319.8567  19.5085  6.47293469708400
STELLA                  
1 22824U 93061B   22285.89119648 -.00000035  00000+0  48598-5 0  9999
2 22824  98.9586 309.7484 0006570 166.7631 294.7557 14.27393872513136
LARES                   
1 38077U 12006A   22285.67058240 -.00000033  00000+0  33783-4 0  9999
2 38077  69.4923  67.0830 0011136 237.1434 122.8523 12.54931441488614
